KUIPER-00167            
1 65780U 25217U   25365.33334491  .00014726  00000+0  20348-2 0  9992
2 65780  51.8973 347.8038 0001168 116.1384  56.8493 14.78266142  2800
KUIPER-00168            
1 65781U 25217V   25365.33334491 -.01076274  00000+0 -51712-1 0  9990
2 65781  51.8826 334.5588 0001984  91.2525 309.2623 15.21422586  2217
KUIPER-00169            
1 65782U 25217W   25365.33334491 -.01620828  00000+0 -12110+0 0  9998
2 65782  51.8899 336.9593 0005230  92.7982 225.0711 15.05543866  4932
KUIPER-00170            
1 65783U 25217X   25365.33334491 -.01729412  00000+0 -17889+0 0  9996
2 65783  51.8954 340.8230 0008239  75.7446 139.6780 14.93359105  4905
KUIPER-00171            
1 65784U 25217Y   25365.33334491  .00157520  00000+0  10886-2 0  9992
2 65784  51.8538 321.5488 0011232  86.8074  87.4720 15.73455609  4237
KUIPER-00172            
1 65785U 25217Z   25365.29641192  .00030188  00000+0  13914-2 0  9992
2 65785  51.8795 335.7492 0005486  89.8983 270.2625 15.20009585 14889
KUIPER-00173            
1 65786U 25217AA  25365.33334491 -.00637566  00000+0 -45138-1 0  9996
2 65786  51.8872 337.1434 0000920 122.4434 356.1024 15.06772452  3026
KUIPER-00174            
1 65787U 25217AB  25365.33334491 -.01931657  00000+0 -96245-1 0  9991
2 65787  51.8796 334.7466 0002067  65.9242 184.9292 15.20508684  5871
